DOT-1                   
1 44399U 19038P   22068.48333536  .00004503  00000+0  25116-3 0  9992
2 44399  97.6287  36.7846 0025290 121.3425 239.0286 15.13819261147818
SOKRAT                  
1 44404U 19038U   22068.44068554  .00007498  00000+0  40049-3 0  9998
2 44404  97.6247  37.3231 0022633 117.8971 242.4557 15.15186991147863
LUCKY-7                 
1 44406U 19038W   22068.45065374  .00005618  00000+0  30925-3 0  9992
2 44406  97.6279  37.0636 0025197 114.2233 246.1636 15.14180252147824
D-STAR ONE (EXOCONNECT) 
1 44410U 19038AA  22068.47850382  .00011073  00000+0  56353-3 0  9995
2 44410  97.6202  37.9599 0022016 114.0528 246.3012 15.16782990147924
NARSSCUBE-2             
1 44415U 19022E   22068.50662564  .00007004  00000+0  22833-3 0  9995
2 44415  51.6395 240.8852 0011000  57.9541 302.2508 15.32881408144774
DUCHIFAT-3              
1 44854U 19089C   22068.43559455  .00003265  00000+0  26197-3 0  9993
2 44854  36.9678 332.9192 0006404 131.1605 228.9724 15.00255980122909
OPS-SAT                 
1 44878U 19092F   22068.46852730  .00007856  00000+0  38683-3 0  9991
2 44878  97.4788 253.4143 0012618 333.4783  26.5804 15.18179759123012
FLORIPASAT-1            
1 44885U 19093G   22068.48098763  .00001489  00000+0  19079-3 0  9994
2 44885  97.9024 150.1543 0015331 154.2561 205.9449 14.82702503120039
HUSKYSAT-1 (HO-107)     
1 45119U 19071J   22068.58062239  .00016300  00000+0  41213-3 0  9994
2 45119  51.6397 188.4051 0009325 170.0703 190.0467 15.39884538117951
G-SAT                   
1 45597U 98067RK  22068.41119121  .00175174  00000+0  85450-3 0  9997
2 45597  51.6343  66.1876 0003144  75.6811 284.4540 15.81298965106107
BY70-2                  
1 45857U 20042B   22068.50454437  .00004769  00000+0  66203-3 0  9992
2 45857  97.9624 146.3982 0012028  83.9501 276.3164 14.78323313 90687
SALSAT                  
1 46495U 20068K   22068.58235103  .00002790  00000+0  20616-3 0  9994
2 46495  97.7201   9.9521 0015529 254.5178 105.4333 15.03966590 79173
NETSAT-4                
1 46504U 20068U   22068.58576900  .00002997  00000+0  22866-3 0  9996
2 46504  97.7139   8.6791 0012298 310.8240  49.1925 15.02725772 79046
NETSAT-3                
1 46505U 20068V   22068.39870509  .00001862  00000+0  14402-3 0  9995
2 46505  97.7159   8.4317 0011126 324.1485  35.8986 15.02691859 79024
NETSAT-1                
1 46506U 20068W   22068.54510469  .00002492  00000+0  19138-3 0  9990
2 46506  97.7153   8.5188 0008644 338.7491  21.3373 15.02664809 79042
NETSAT-2                
1 46507U 20068X   22068.55271169  .00002333  00000+0  17957-3 0  9994
2 46507  97.7154   8.5198 0007673 344.9843  15.1150 15.02642960 78997
BY70-3                  
1 46839U 20079N   22068.49319956  .00017775  00000+0  48418-3 0  9996
2 46839  97.2098 142.1836 0005849 346.3617 139.5644 15.37529912 74869
SPOC                    
1 46921U 98067RR  22068.53592267  .00058801  00000+0  53157-3 0  9994
2 46921  51.6367  85.1475 0003863  39.9945 320.1336 15.67515265 76218
BOBCAT-1                
1 46922U 98067RS  22068.46601257  .00199883  00000+0  89713-3 0  9990
2 46922  51.6340  74.1693 0006270  57.4271 302.7337 15.82995261 76315
NEUTRON-1               
1 46923U 98067RT  22068.44484126  .00069791  00000+0  63249-3 0  9993
2 46923  51.6376  86.0467 0004009  41.9275 318.2028 15.67382989 76225
DESCENT                 
1 46927U 98067RX  22068.43581617  .00075549  00000+0  67164-3 0  9997
2 46927  51.6372  85.9836 0004547  48.3606 311.7779 15.67820993 76132
UVSQ-SAT                
1 47438U 21006AB  22068.41588285  .00004362  00000+0  24124-3 0  9994
2 47438  97.4510 129.5127 0010827 260.3655  99.6354 15.14344147 62138
SOMP2B                  
1 47445U 21006AJ  22068.13221736  .00004093  00000+0  22806-3 0  9992
2 47445  97.4479 128.9779 0010506 266.1792  93.8239 15.14116674 62080
WARP-01                 
1 47924U 98067SA  22068.45620153  .00130346  00000+0  97018-3 0  9994
2 47924  51.6346  91.3145 0007376  38.5104 321.6419 15.71848358 56119
RSP-01                  
1 47925U 98067SB  22068.54699701  .00067066  00000+0  64508-3 0  9996
2 47925  51.6382  94.2290 0003549  25.2977 334.8192 15.65923067 56064
TAUSAT-1                
1 47926U 98067SC  22068.55591389  .00107107  00000+0  79202-3 0  9999
2 47926  51.6359  89.7518 0004616  26.6286 333.4948 15.72112850 56113
TSURU                   
1 47927U 98067SD  22068.47571231  .00063590  00000+0  66157-3 0  9997
2 47927  51.6374  95.9965 0003098  19.9197 340.1918 15.63970054 56036
STARS-EC                
1 47928U 98067SE  22068.12013850  .00163210  00000+0  10554-2 0  9997
2 47928  51.6348  92.0827 0008419  39.1768 320.9840 15.75007135 56037
MAYA-2                  
1 47929U 98067SF  22068.53610112  .00054291  00000+0  56708-3 0  9997
2 47929  51.6378  95.6488 0002986  19.6580 340.4529 15.63935113 56002
HIROGARI (OPUSAT-II)    
1 47930U 98067SG  22068.55782286  .00159404  00000+0  96708-3 0  9999
2 47930  51.6327  88.2558 0005569  40.8674 319.2743 15.76502213 56146
GUARANISAT-1            
1 47931U 98067SH  22068.52831174  .00054520  00000+0  56699-3 0  9996
2 47931  51.6387  95.6101 0003024  19.0324 341.0783 15.64044370 56041
DIY-1 (ARDUIQUBE)       
1 47963U 21022AH  22068.46649532  .00011921  00000+0  73215-3 0  9997
2 47963  97.5411 331.1982 0019937 114.1064 246.2253 15.10069747 51843
